0002P         2010 08  6.5019  0.335869  0.848338  186.5490  334.5669   11.7831  20100723  11.5  6.0  2P/Encke                                                 MPC 59600
0008P         2008 01 26.7039  1.027679  0.819476  207.4962  270.3486   54.9881  20100723   8.0  8.0  8P/Tuttle                                                MPC 61707
0009P         2011 01 12.3628  1.510248  0.516640  178.9218   68.9108   10.5220  20100723   5.5 10.0  9P/Tempel                                                MPC 62880
0010P         2010 07  4.9072  1.422698  0.536334  195.6608  117.8251   12.0223  20100723   5.0 10.0  10P/Tempel                                               MPC 59600
0014P         2009 02 27.4837  2.725062  0.357824  159.0652  202.1133   27.9427  20100723   5.5 12.0  14P/Wolf                                                 MPC 56802
0017P         2007 05  5.2614  2.053676  0.432837   24.3791  326.8507   19.1105  20100723  10.0  6.0  17P/Holmes                                               MPC 51822
0022P         2009 05 25.3009  1.576657  0.544267  162.7545  120.8826    4.7236  20100723   3.0 10.4  22P/Kopff                                                MPC 66205
0024P         2009 08  9.5975  1.213716  0.703511   57.9814   79.7154   11.7303  20100723   6.5 14.0  24P/Schaumasse                                           MPC 56804
0029P         2004 07 15.0677  5.720702  0.045061   49.2011  312.6308    9.3905  20100723   4.0  4.0  29P/Schwassmann-Wachmann                                 MPC 42666
0030P         2010 04 19.5387  1.884060  0.501070   13.2043  119.7537    8.1221  20100723   9.5  6.0  30P/Reinmuth                                             MPC 59599
0031P         2010 09 29.5875  3.424310  0.192676   17.9480  114.1907    4.5469  20100723   5.0  8.0  31P/Schwassmann-Wachmann                                 MPC 59600
0036P         2011 12 31.0058  3.087202  0.258953  201.8477  182.3943    9.9358  20100723   8.5  6.0  36P/Whipple                                              MPC 62883
0043P         2010 07  1.7432  1.357615  0.594454  191.4690  249.8959   15.9664  20100723   8.0  6.0  43P/Wolf-Harrington                                      MPC 59600
0047P         2009 02  1.2466  2.800170  0.318998  357.7686  356.9809   13.0530  20100723   1.0 11.2  47P/Ashbrook-Jackson                                     MPC 56802
0049P         2011 10 19.0941  1.421558  0.600709  332.8425  118.9310   19.0687  20100723  11.3  4.4  49P/Arend-Rigaux                                         MPC 62882
0054P         2009 11 28.4635  2.172039  0.426349    1.9003  358.8532    6.0686  20100723  10.0  6.0  54P/de Vico-Swift-NEAT                                   MPC 66922
0059P         2009 03  7.6888  2.354945  0.475504  127.5259  313.0281    9.3393  20100723   7.0  6.0  59P/Kearns-Kwee                                          MPC 64498
0061P         2008 09  6.3644  2.108420  0.426927  221.7000  163.1081    6.0098  20100723   6.0 10.0  61P/Shajn-Schaldach                                      MPC 63377
0065P         2010 03  2.2340  2.440456  0.319517  196.6667   68.3540   10.3860  20100723   5.0  6.0  65P/Gunn                                                 MPC 59598
0067P         2009 02 28.4520  1.245727  0.640466   12.6984   50.1815    7.0427  20100723  11.0  4.0  67P/Churyumov-Gerasimenko                                MPC 56802
0068P         2009 01 20.9612  1.760089  0.640354  154.0183  175.3232   11.1447  20100723  10.0  4.0  68P/Klemola                                              MPC 56802
0074P         2009 07 29.2599  3.557128  0.147294   87.0913   77.0841    6.6482  20100723   5.0  6.0  74P/Smirnova-Chernykh                                    MPC 56804
0077P         2009 07  7.9739  2.311144  0.357902  196.7543   14.9134   24.3992  20100723   7.0  8.0  77P/Longmore                                             MPC 56804
0081P         2010 02 22.6884  1.598039  0.537292   41.7877  136.0965    3.2374  20100723   7.0  6.0  81P/Wild                                                 MPC 67148
0082P         2010 01 12.0347  3.633339  0.122518  226.2767  239.4919    1.1259  20100723   5.0  8.0  82P/Gehrels                                              MPC 59598
0088P         2009 10 12.4231  1.363020  0.561997  235.9293   56.7469    4.3824  20100723  11.0  6.0  88P/Howell                                               MPC 66205
0089P         2009 08 16.7905  2.277971  0.399870  249.2281   42.3236   12.0409  20100723  11.5  6.0  89P/Russell                                              MPC 56804
0094P         2010 03 29.7121  2.240236  0.363080   92.8355   70.9125    6.1824  20100723   9.0  6.0  94P/Russell                                              MPC 59599
0097P         2011 08 21.9294  2.592357  0.459844  228.5018  185.2218   17.8852  20100723   5.5  6.0  97P/Metcalf-Brewington                                   MPC 62881
0099P         2007 01 28.7895  4.743898  0.228712  174.6248   28.2061    4.3324  20100723   4.5  6.0  99P/Kowal                                                MPC 51821
0100P         2009 12  6.1729  1.982585  0.418524  181.7235   37.8439   25.6546  20100723   9.0  8.0  100P/Hartley                                             MPC 56805
0103P         2010 10 28.2794  1.058677  0.695112  181.1973  219.7663   13.6168  20100723   8.5  8.0  103P/Hartley                                             MPC 59600
0104P         2010 05  4.6343  1.179641  0.638147  200.5543  235.5155   10.2684  20100723  12.5  4.0  104P/Kowal                                               MPC 59599
0110P         2008 02  3.0693  2.484790  0.312810  167.6222  287.7199   11.6812  20100723   1.0 12.0  110P/Hartley                                             MPC 54167
0115P         2011 10  6.8502  2.035159  0.521368  120.0332  176.6049   11.7062  20100723  10.5  6.0  115P/Maury                                               MPC 62882
0116P         2009 07 18.8494  2.175350  0.374316  173.6008   21.0335    3.6130  20100723   2.5 10.0  116P/Wild                                                MPC 62583
0117P         2014 03 27.6373  3.046765  0.254761  223.0421   58.9216    8.7002  20100723   2.5  8.0  117P/Helin-Roman-Alu                                     MPC 45658
0118P         2010 01  2.3235  1.983892  0.427509  302.1469  151.8071    8.5094  20100723  12.0  4.0  118P/Shoemaker-Levy                                      MPC 66922
0119P         2014 04  2.7483  3.035172  0.291180  181.0737  244.0773    5.1934  20100723   3.5  8.0  119P/Parker-Hartley                                      MPC 52907
0123P         2011 07  4.4919  2.129190  0.448072  102.8168   46.6002   15.3569  20100723   4.0 10.0  123P/West-Hartley                                        MPC 62881
0126P         2010 02 22.6443  1.713363  0.696391  356.7190  357.7609   45.8313  20100723   6.0  8.0  126P/IRAS                                                MPC 66205
0127P         2009 10 21.4235  2.195911  0.362302    6.5641   13.6835   14.3217  20100723  11.0  6.0  127P/Holt-Olmstead                                       MPC 67414
0128P         2007 06 13.8064  3.062504  0.320891  210.3319  214.3583    4.3606  20100723   8.5  4.0  128P/Shoemaker-Holt                                      MPC 51822
0130P         2011 06 24.6554  2.098422  0.406837  224.3174   89.8180    7.3065  20100723  10.0  6.0  130P/McNaught-Hughes                                     MPC 62881
0131P         2012 01  7.8987  2.417971  0.342932  179.6358  214.2254    7.3551  20100723  11.0  4.0  131P/Mueller                                             MPC 65937
0136P         2007 10 23.2438  2.962825  0.293509  225.0737  137.5520    9.4265  20100723  11.0  4.0  136P/Mueller                                             MPC 60282
0137P         2009 05 13.6557  1.915862  0.574634  140.8669  233.1087    4.8529  20100723  11.0  4.0  137P/Shoemaker-Levy                                      MPC 56803
0139P         2008 04 20.1211  3.402780  0.247434  165.6679  242.3989    2.3287  20100723   9.5  4.0  139P/Vaisala-Oterma                                      MPC 60666
0141P         2010 05 29.7106  0.757809  0.749215  149.3298  246.0849   12.8032  20100723  12.0 12.0  141P/Machholz                                            MPC 59599
0142P         2010 05 30.4809  2.487996  0.499943  175.7155  176.5184   12.3066  20100723   8.5  6.0  142P/Ge-Wang                                             MPC 59599
0143P         2009 06 12.2487  2.538870  0.409490  320.7970  245.3628    4.6899  20100723  13.5  2.0  143P/Kowal-Mrkos                                         MPC 56803
0145P         2009 03 26.7307  1.891628  0.542442   10.1890   26.8908   11.2997  20100723  13.5  4.0  145P/Shoemaker-Levy                                      MPC 56803
0147P         2008 09 22.9105  2.754864  0.276462  346.8271   93.7299    2.3671  20100723  14.0  4.0  147P/Kushida-Muramatsu                                   MPC 54170
0149P         2010 02 19.1467  2.650884  0.388334   43.7533  145.2640   29.7344  20100723   8.0  8.0  149P/Mueller                                             MPC 59598
0150P         2008 11 25.8175  1.768690  0.545368  245.6777  272.4262   18.4971  20100723  13.5  4.0  150P/LONEOS                                              MPC 54170
0152P         2012 07  9.5681  3.114053  0.307822  163.8913   91.9432    9.8672  20100723  11.5  4.0  152P/Helin-Lawrence                                      MPC 65938
0157P         2010 02 20.5399  1.360146  0.601170  148.7492  300.1068    7.2771  20100723  10.0  4.0  157P/Tritton                                             MPC 66922
0158P         2012 09 15.0746  4.579212  0.029721  231.5379  137.3091    7.9084  20100723   9.0  4.0  158P/Kowal-LINEAR                                        MPC 65939
0162P         2010 03  8.4253  1.233099  0.596042  356.3104   31.2394   27.8167  20100723  12.0  4.0  162P/Siding Spring                                       MPC 59599
